start=new Date('2023-04-06T00:00:00.000Z').valueOf();
sats=[{"PERIAPSIS":"546.227","DECAY_DATE":null,"REV_AT_EPOCH":"10600","ECCENTRICITY":"0.00014390","CENTER_NAME":"EARTH","TLE_LINE2":"2 48372  53.0530 111.6429 0001439  91.6680 268.4474 15.06396631106005","MEAN_MOTION":"15.06396631","COUNTRY_CODE":"US","SEMIMAJOR_AXIS":"6925.359","LAUNCH_DATE":"2021-05-04","EPOCH":"2023-04-05T10:40:34.508640","ELEMENT_SET_NO":"999","GP_ID":"229535759","RCS_SIZE":"LARGE","REF_FRAME":"TEME","OBJECT_NAME":"STARLINK-2572","CLASSIFICATION_TYPE":"U","OBJECT_ID":"2021-038V","BSTAR":"0.00036251000000","NORAD_CAT_ID":"48372","MEAN_ELEMENT_THEORY":"SGP4","MEAN_ANOMALY":"268.4474","INCLINATION":"53.0530","PERIOD":"95.592","ARG_OF_PERICENTER":"91.6680","SITE":"AFETR","RA_OF_ASC_NODE":"111.6429","EPHEMERIS_TYPE":"0","OBJECT_TYPE":"PAYLOAD","FILE":"3880853","MEAN_MOTION_DDOT":"0.0000000000000","TLE_LINE1":"1 48372U 21038V   23095.44484385  .00005122  00000-0  36251-3 0  9997","MEAN_MOTION_DOT":"0.00005122","APOAPSIS":"548.220","TIME_SYSTEM":"UTC"},{"FILE":"3880853","MEAN_MOTION_DDOT":"0.0000000000000","OBJECT_TYPE":"PAYLOAD","RA_OF_ASC_NODE":"112.2505","EPHEMERIS_TYPE":"0","SITE":"AFETR","INCLINATION":"53.0532","PERIOD":"95.592","ARG_OF_PERICENTER":"100.3439","MEAN_ELEMENT_THEORY":"SGP4","NORAD_CAT_ID":"48373","MEAN_ANOMALY":"259.7720","TIME_SYSTEM":"UTC","MEAN_MOTION_DOT":"-0.00000454","APOAPSIS":"548.261","TLE_LINE1":"1 48373U 21038W   23095.30846391 -.00000454  00000-0 -11573-4 0  9998","COUNTRY_CODE":"US","MEAN_MOTION":"15.06400355","TLE_LINE2":"2 48373  53.0532 112.2505 0001514 100.3439 259.7720 15.06400355105986","CENTER_NAME":"EARTH","REV_AT_EPOCH":"10598","ECCENTRICITY":"0.00015140","PERIAPSIS":"546.164","DECAY_DATE":null,"BSTAR":"-0.00001157300000","OBJECT_ID":"2021-038W","CLASSIFICATION_TYPE":"U","GP_ID":"229536009","REF_FRAME":"TEME","RCS_SIZE":"LARGE","OBJECT_NAME":"STARLINK-2609","EPOCH":"2023-04-05T07:24:11.281824","LAUNCH_DATE":"2021-05-04","ELEMENT_SET_NO":"999","SEMIMAJOR_AXIS":"6925.347"},{"TLE_LINE2":"2 48374  53.0515 110.1818 0001400 102.9797 257.1349 15.06387976106052","MEAN_MOTION":"15.06387976","COUNTRY_CODE":"US","PERIAPSIS":"546.281","DECAY_DATE":null,"REV_AT_EPOCH":"10605","ECCENTRICITY":"0.00014000","CENTER_NAME":"EARTH","CLASSIFICATION_TYPE":"U","OBJECT_ID":"2021-038X","BSTAR":"0.00012838000000","SEMIMAJOR_AXIS":"6925.385","EPOCH":"2023-04-05T18:26:16.553760","LAUNCH_DATE":"2021-05-04","ELEMENT_SET_NO":"999","RCS_SIZE":"LARGE","GP_ID":"229569418","REF_FRAME":"TEME","OBJECT_NAME":"STARLINK-2604","RA_OF_ASC_NODE":"110.1818","EPHEMERIS_TYPE":"0","OBJECT_TYPE":"PAYLOAD","MEAN_MOTION_DDOT":"0.0000000000000","FILE":"3881153","MEAN_ELEMENT_THEORY":"SGP4","NORAD_CAT_ID":"48374","MEAN_ANOMALY":"257.1349","PERIOD":"95.593","INCLINATION":"53.0515","ARG_OF_PERICENTER":"102.9797","SITE":"AFETR","MEAN_MOTION_DOT":"0.00001631","APOAPSIS":"548.220","TIME_SYSTEM":"UTC","TLE_LINE1":"1 48374U 21038X   23095.76824715  .00001631  00000-0  12838-3 0  9995"},{"COUNTRY_CODE":"US","MEAN_MOTION":"15.06402523","TLE_LINE2":"2 48375  53.0534 110.2038 0001389 102.4314 257.6830 15.06402523106051","CENTER_NAME":"EARTH","REV_AT_EPOCH":"10605","ECCENTRICITY":"0.00013890","PERIAPSIS":"546.244","DECAY_DATE":null,"BSTAR":"0.00070928000000","OBJECT_ID":"2021-038Y","CLASSIFICATION_TYPE":"U","GP_ID":"229570152","REF_FRAME":"TEME","RCS_SIZE":"LARGE","OBJECT_NAME":"STARLINK-2603","EPOCH":"2023-04-05T18:22:21.096480","LAUNCH_DATE":"2021-05-04","ELEMENT_SET_NO":"999","SEMIMAJOR_AXIS":"6925.341","MEAN_MOTION_DDOT":"0.0000000000000","FILE":"3881153","OBJECT_TYPE":"PAYLOAD","RA_OF_ASC_NODE":"110.2038","EPHEMERIS_TYPE":"0","SITE":"AFETR","PERIOD":"95.592","INCLINATION":"53.0534","ARG_OF_PERICENTER":"102.4314","MEAN_ELEMENT_THEORY":"SGP4","NORAD_CAT_ID":"48375","MEAN_ANOMALY":"257.6830","TIME_SYSTEM":"UTC","MEAN_MOTION_DOT":"0.00010300","APOAPSIS":"548.168","TLE_LINE1":"1 48375U 21038Y   23095.76552195  .00010300  00000-0  70928-3 0  9993"},{"RA_OF_ASC_NODE":"112.0052","EPHEMERIS_TYPE":"0","OBJECT_TYPE":"PAYLOAD","MEAN_MOTION_DDOT":"0.0000000000000","FILE":"3880853","MEAN_ELEMENT_THEORY":"SGP4","NORAD_CAT_ID":"48376","MEAN_ANOMALY":"271.3118","PERIOD":"95.592","INCLINATION":"53.0536","ARG_OF_PERICENTER":"88.8035","SITE":"AFETR","MEAN_MOTION_DOT":"0.00002182","APOAPSIS":"548.220","TIME_SYSTEM":"UTC","TLE_LINE1":"1 48376U 21038Z   23095.36375108  .00002182  00000-0  16534-3 0  9999","TLE_LINE2":"2 48376  53.0536 112.0052 0001440  88.8035 271.3118 15.06397075105994","COUNTRY_CODE":"US","MEAN_MOTION":"15.06397075","PERIAPSIS":"546.225","DECAY_DATE":null,"REV_AT_EPOCH":"10599","ECCENTRICITY":"0.00014400","CENTER_NAME":"EARTH","CLASSIFICATION_TYPE":"U","OBJECT_ID":"2021-038Z","BSTAR":"0.00016534000000","SEMIMAJOR_AXIS":"6925.358","LAUNCH_DATE":"2021-05-04","ELEMENT_SET_NO":"999","EPOCH":"2023-04-05T08:43:48.093312","GP_ID":"229535260","RCS_SIZE":"LARGE","REF_FRAME":"TEME","OBJECT_NAME":"STARLINK-2610"},{"CENTER_NAME":"EARTH","REV_AT_EPOCH":"10605","ECCENTRICITY":"0.00011990","PERIAPSIS":"546.478","DECAY_DATE":null,"COUNTRY_CODE":"US","MEAN_MOTION":"15.06369102","TLE_LINE2":"2 48377  53.0529 110.2351 0001199  81.3502 278.7623 15.06369102106057","GP_ID":"229568667","RCS_SIZE":"LARGE","REF_FRAME":"TEME","OBJECT_NAME":"STARLINK-2499","LAUNCH_DATE":"2021-05-04","EPOCH":"2023-04-05T18:11:42.939168","ELEMENT_SET_NO":"999","SEMIMAJOR_AXIS":"6925.443","BSTAR":"0.00039437000000","OBJECT_ID":"2021-038AA","CLASSIFICATION_TYPE":"U","SITE":"AFETR","INCLINATION":"53.0529","PERIOD":"95.594","ARG_OF_PERICENTER":"81.3502","NORAD_CAT_ID":"48377","MEAN_ELEMENT_THEORY":"SGP4","MEAN_ANOMALY":"278.7623","FILE":"3881153","MEAN_MOTION_DDOT":"0.0000000000000","OBJECT_TYPE":"PAYLOAD","RA_OF_ASC_NODE":"110.2351","EPHEMERIS_TYPE":"0","TLE_LINE1":"1 48377U 21038AA  23095.75813587  .00005593  00000-0  39437-3 0  9997","TIME_SYSTEM":"UTC","MEAN_MOTION_DOT":"0.00005593","APOAPSIS":"548.139"},{"SEMIMAJOR_AXIS":"6925.364","GP_ID":"229569919","RCS_SIZE":"LARGE","REF_FRAME":"TEME","OBJECT_NAME":"STARLINK-2526","ELEMENT_SET_NO":"999","LAUNCH_DATE":"2021-05-04","EPOCH":"2023-04-05T18:06:25.587648","OBJECT_ID":"2021-038AB","CLASSIFICATION_TYPE":"U","BSTAR":"0.00046655000000","REV_AT_EPOCH":"10605","ECCENTRICITY":"0.00014550","PERIAPSIS":"546.221","DECAY_DATE":null,"CENTER_NAME":"EARTH","MEAN_MOTION":"15.06394985","COUNTRY_CODE":"US","TLE_LINE2":"2 48378  53.0519 110.2520 0001455  97.7659 262.3495 15.06394985106057","TLE_LINE1":"1 48378U 21038AB  23095.75446282  .00006674  00000-0  46655-3 0  9993","MEAN_MOTION_DOT":"0.00006674","APOAPSIS":"548.237","TIME_SYSTEM":"UTC","INCLINATION":"53.0519","PERIOD":"95.592","ARG_OF_PERICENTER":"97.7659","NORAD_CAT_ID":"48378","MEAN_ELEMENT_THEORY":"SGP4","MEAN_ANOMALY":"262.3495","SITE":"AFETR","OBJECT_TYPE":"PAYLOAD","RA_OF_ASC_NODE":"110.2520","EPHEMERIS_TYPE":"0","MEAN_MOTION_DDOT":"0.0000000000000","FILE":"3881153"},{"PERIAPSIS":"546.389","DECAY_DATE":null,"REV_AT_EPOCH":"10605","ECCENTRICITY":"0.00012550","CENTER_NAME":"EARTH","TLE_LINE2":"2 48379  53.0530 110.2714 0001255  83.7871 276.3261 15.06385372106051","MEAN_MOTION":"15.06385372","COUNTRY_CODE":"US","SEMIMAJOR_AXIS":"6925.393","LAUNCH_DATE":"2021-05-04","ELEMENT_SET_NO":"999","EPOCH":"2023-04-05T18:01:07.779936","RCS_SIZE":"LARGE","GP_ID":"229569652","REF_FRAME":"TEME","OBJECT_NAME":"STARLINK-2612","CLASSIFICATION_TYPE":"U","OBJECT_ID":"2021-038AC","BSTAR":"0.00083006000000","NORAD_CAT_ID":"48379","MEAN_ELEMENT_THEORY":"SGP4","MEAN_ANOMALY":"276.3261","INCLINATION":"53.0530","PERIOD":"95.593","ARG_OF_PERICENTER":"83.7871","SITE":"AFETR","RA_OF_ASC_NODE":"110.2714","EPHEMERIS_TYPE":"0","OBJECT_TYPE":"PAYLOAD","MEAN_MOTION_DDOT":"0.0000000000000","FILE":"3881153","TLE_LINE1":"1 48379U 21038AC  23095.75078449  .00012099  00000-0  83006-3 0  9999","MEAN_MOTION_DOT":"0.00012099","APOAPSIS":"548.128","TIME_SYSTEM":"UTC"},{"DECAY_DATE":null,"PERIAPSIS":"546.221","ECCENTRICITY":"0.00014740","REV_AT_EPOCH":"10600","CENTER_NAME":"EARTH","TLE_LINE2":"2 48380  53.0520 111.6467 0001474 101.8523 258.2632 15.06390840106003","COUNTRY_CODE":"US","MEAN_MOTION":"15.06390840","SEMIMAJOR_AXIS":"6925.377","LAUNCH_DATE":"2021-05-04","ELEMENT_SET_NO":"999","EPOCH":"2023-04-05T10:39:13.347936","OBJECT_NAME":"STARLINK-2614","RCS_SIZE":"LARGE","GP_ID":"229535760","REF_FRAME":"TEME","CLASSIFICATION_TYPE":"U","OBJECT_ID":"2021-038AD","BSTAR":"0.00027587000000","MEAN_ANOMALY":"258.2632","NORAD_CAT_ID":"48380","MEAN_ELEMENT_THEORY":"SGP4","ARG_OF_PERICENTER":"101.8523","INCLINATION":"53.0520","PERIOD":"95.593","SITE":"AFETR","EPHEMERIS_TYPE":"0","RA_OF_ASC_NODE":"111.6467","OBJECT_TYPE":"PAYLOAD","FILE":"3880853","MEAN_MOTION_DDOT":"0.0000000000000","TLE_LINE1":"1 48380U 21038AD  23095.44390449  .00003829  00000-0  27587-3 0  9997","APOAPSIS":"548.262","MEAN_MOTION_DOT":"0.00003829","TIME_SYSTEM":"UTC"},{"TLE_LINE1":"1 48381U 21038AE  23095.74709577  .00013443  00000-0  91991-3 0  9990","TIME_SYSTEM":"UTC","MEAN_MOTION_DOT":"0.00013443","APOAPSIS":"548.366","SITE":"AFETR","MEAN_ELEMENT_THEORY":"SGP4","NORAD_CAT_ID":"48381","MEAN_ANOMALY":"272.2223","PERIOD":"95.593","INCLINATION":"53.0521","ARG_OF_PERICENTER":"87.8951","FILE":"3881153","MEAN_MOTION_DDOT":"0.0000000000000","RA_OF_ASC_NODE":"110.2865","EPHEMERIS_TYPE":"0","OBJECT_TYPE":"PAYLOAD","ELEMENT_SET_NO":"999","LAUNCH_DATE":"2021-05-04","EPOCH":"2023-04-05T17:55:49.074528","REF_FRAME":"TEME","GP_ID":"229569168","RCS_SIZE":"LARGE","OBJECT_NAME":"STARLINK-2630","SEMIMAJOR_AXIS":"6925.379","BSTAR":"0.00091991000000","CLASSIFICATION_TYPE":"U","OBJECT_ID":"2021-038AE","CENTER_NAME":"EARTH","PERIAPSIS":"546.122","DECAY_DATE":null,"REV_AT_EPOCH":"10605","ECCENTRICITY":"0.00016200","TLE_LINE2":"2 48381  53.0521 110.2865 0001620  87.8951 272.2223 15.06390116106056","MEAN_MOTION":"15.06390116","COUNTRY_CODE":"US"}];
